LEMUR-2-MARHISYAM       
1 60536U 24149BW  25243.46337762  .00014793  00000+0  10975-2 0  9991
2 60536  97.7132 321.1121 0003242  58.7701 301.3842 15.03163399 56834
SATELIOT_4              
1 60537U 24149BX  25243.20688232  .00003504  00000+0  32564-3 0  9992
2 60537  97.7040 318.0039 0000703 296.4247  63.6902 14.95000529 56628
PICO-02A021             
1 60538U 24149BY  25243.45704137  .00007988  00000+0  66198-3 0  9993
2 60538  97.7136 320.0623 0001758 350.2401   9.8788 14.99101761 56267
ICEYE-X43               
1 60539U 24149BZ  25243.48847168  .00006400  00000+0  55679-3 0  9999
2 60539  97.7069 319.3275 0001953 338.9660  21.1481 14.97291843 56721
HAWK-10A                
1 60540U 24149CA  25243.26554761  .00002754  00000+0  25637-3 0  9990
2 60540  97.7184 318.9481 0002890 341.7951  18.3166 14.95114602 56645
UMBRA-09                
1 60541U 24149CB  25243.46410069  .00019571  00000+0  13202-2 0  9994
2 60541  97.7187 322.8162 0001552 222.3877 137.7230 15.06670271 56925
QPS-SAR-8 (AMATERU-IV)  
1 60542U 24149CC  25243.23849175  .00009901  00000+0  80325-3 0  9991
2 60542  97.7139 320.1146 0004083  22.7710 337.3693 14.99853734 56745
ARCTIC WEATHER SATELLITE
1 60543U 24149CD  25243.47296258  .00001628  00000+0  17542-3 0  9995
2 60543  97.7129 316.6811 0002314  29.1126 331.0220 14.89776354 56165
CAPELLA-15 (ACADIA-5)   
1 60544U 24149CE  25243.54933775  .00011710  00000+0  11461-2 0  9992
2 60544  97.7071 318.1723 0004287 312.1195  47.9659 14.92451048 56650
HAWK-10B                
1 60545U 24149CF  25243.46617681  .00002761  00000+0  25696-3 0  9991
2 60545  97.7114 318.7822 0005103 354.8677   5.2490 14.95116125 56670
ICEYE-X39               
1 60546U 24149CG  25243.45264719  .00004912  00000+0  42835-3 0  9995
2 60546  97.7083 319.3803 0003750 349.1209  10.9931 14.97306731 56721
UMBRA-10                
1 60547U 24149CH  25243.53006213  .00019711  00000+0  13297-2 0  9990
2 60547  97.7197 322.8843 0001038 178.7573 181.3656 15.06670989 56949
ICEYE-X33               
1 60548U 24149CJ  25243.45190312  .00003743  00000+0  31563-3 0  9991
2 60548  97.7133 320.1733 0004516 352.5256   7.5899 14.98760138 56767
ICEYE-X40               
1 60549U 24149CK  25243.46899270  .00002536  00000+0  22768-3 0  9998
2 60549  97.7090 319.4388 0004252 342.1928  17.9144 14.96602267 56725
SATELIOT_1              
1 60550U 24149CL  25243.45622464  .00003132  00000+0  28214-3 0  9993
2 60550  97.7042 319.0460 0006087 335.9618  24.1318 14.96301142 56715
BRO-14                  
1 60551U 24149CM  25243.45371274  .00001691  00000+0  15962-3 0  9998
2 60551  97.7170 319.1679 0006666 358.6202   1.4999 14.95064677 56682
SATELIOT_3              
1 60552U 24149CN  25243.16998730  .00004643  00000+0  41510-3 0  9997
2 60552  97.7117 319.2821 0005147 358.6050   1.5156 14.96355473 56682
BRO-15                  
1 60553U 24149CP  25243.24318537  .00001472  00000+0  13875-3 0  9998
2 60553  97.7102 318.8010 0007652 348.3471  11.7571 14.95286973 56667
UM5-RIBAT               
1 60554U 24149CQ  25243.47028993  .00005318  00000+0  45163-3 0  9996
2 60554  97.7043 319.8623 0007453 327.2405  32.8354 14.98293918 56769
UM5-EOSAT               
1 60555U 24149CR  25243.45265178  .00004982  00000+0  41836-3 0  9992
2 60555  97.7136 320.3603 0007698 344.5405  15.5582 14.98755565 56774
LASARSAT                
1 62391U 24247Q   25243.53003244  .00028700  00000+0  10287-2 0  9993
2 62391  44.9780  67.3919 0007975 184.4207 175.6607 15.28261059 38747
CROCUBE                 
1 62394U 24247T   25243.51105151  .00030108  00000+0  10679-2 0  9994
2 62394  44.9779  67.2126 0009457 194.5550 165.5062 15.28568315 38745
TEVEL2-4                
1 63213U 25052D   25243.60672147  .00021044  00000+0  91218-3 0  9992
2 63213  97.4194 136.4922 0005312  70.9074 289.2737 15.22385670 25875
TEVEL2-5                
1 63214U 25052E   25243.60871946  .00021246  00000+0  92179-3 0  9992
2 63214  97.4196 136.4901 0005289  70.8240 289.3569 15.22352207 25876
TEVEL2-6                
1 63215U 25052F   25243.61303376  .00020562  00000+0  89333-3 0  9999
2 63215  97.4197 136.4869 0005382  71.2830 288.8990 15.22311671 25877
TEVEL2-1                
1 63217U 25052H   25243.24215491  .00020213  00000+0  88501-3 0  9999
2 63217  97.4172 136.0122 0005699  80.6179 279.5701 15.22049699 25810
TEVEL2-3                
1 63218U 25052J   25243.43952214  .00020327  00000+0  88956-3 0  9992
2 63218  97.4175 136.2080 0005786  80.6981 279.4910 15.22063950 25847
TEVEL2-2                
1 63219U 25052K   25243.44006125  .00020485  00000+0  89671-3 0  9995
2 63219  97.4173 136.2064 0005747  80.3202 279.8683 15.22053324 25843
TEVEL2-9                
1 63237U 25052AD  25243.44122831  .00019622  00000+0  89120-3 0  9998
2 63237  97.4239 136.0422 0010062  87.4984 272.7404 15.20769467 25824
TEVEL2-7                
1 63238U 25052AE  25243.18416957  .00019649  00000+0  89479-3 0  9991
2 63238  97.4237 135.7791 0010121  87.7720 272.4674 15.20676976 25788
TEVEL2-8                
1 63239U 25052AF  25243.45109521  .00019518  00000+0  88944-3 0  9999
2 63239  97.4236 136.0311 0010140  87.6978 272.5419 15.20655419 25827
HADES-ICM               
1 63492U 25052BN  25243.19457034  .00047742  00000+0  18066-2 0  9993
2 63492  97.4185 136.5716 0013850  87.9027 272.3797 15.26693549 25845
